{"type": "FeatureCollection", "features": [ {"type": "Feature", "properties": {"norad_id": 31040, "name": "FENGYUN 1C DEB", "group": "fengyun-1c-debris", "lat": 79.62938373779582, "lon": -76.44444445478359, "alt_km": 833.3102887210234, "timestamp": "2025-12-16T03:53:27.336306+00:00", "meta": {"OBJECT_NAME": "FENGYUN 1C DEB", "OBJECT_ID": "1999-025BEJ", "EPOCH": "2025-12-15T05:34:07.781664", "MEAN_MOTION": 14.1767489, "ECCENTRICITY": 0.00623982, "INCLINATION": 98.6582, "RA_OF_ASC_NODE": 339.0172, "ARG_OF_PERICENTER": 186.8845, "MEAN_ANOMALY": 193.958, "EPHEMERIS_TYPE": 0, "CLASSIFICATION_TYPE": "U", "NORAD_CAT_ID": 31040, "ELEMENT_SET_NO": 999, "REV_AT_EPOCH": 96742, "BSTAR": 0.00033059882, "MEAN_MOTION_DOT": 6.43e-06, "MEAN_MOTION_DDOT": 0}, "tle": {"line1": "1 31040U 99025BEJ 25349.23203451  .00000643  00000+0  33060-3 0  9993", "line2": "2 31040  98.6582 339.0172 0062398 186.8845 193.9580 14.17674890967421"}}, "geometry": {"type": "Point", "coordinates": [-76.44444445478359, 79.62938373779582]}}, {"type": "Feature", "properties": {"norad_id": 31041, "name": "FENGYUN 1C DEB", "group": "fengyun-1c-debris", "lat": -34.090558192184915, "lon": 25.22957322769481, "alt_km": 778.0431281400006, "timestamp": "2025-12-16T03:53:27.336316+00:00", "meta": {"OBJECT_NAME": "FENGYUN 1C DEB", "OBJECT_ID": "1999-025BEK", "EPOCH": "2025-12-15T00:57:12.987360", "MEAN_MOTION": 14.17861458, "ECCENTRICITY": 0.00870143, "INCLINATION": 99.2054, "RA_OF_ASC_NODE": 17.7655, "ARG_OF_PERICENTER": 313.7057, "MEAN_ANOMALY": 45.6931, "EPHEMERIS_TYPE": 0, "CLASSIFICATION_TYPE": "U", "NORAD_CAT_ID": 31041, "ELEMENT_SET_NO": 999, "REV_AT_EPOCH": 95522, "BSTAR": 0.0015715233, "MEAN_MOTION_DOT": 3.285e-05, "MEAN_MOTION_DDOT": 0}, "tle": {"line1": "1 31041U 99025BEK 25349.03973365  .00003285  00000+0  15715-2 0  9991", "line2": "2 31041  99.2054  17.7655 0087014 313.7057  45.6931 14.17861458955223"}}, "geometry": {"type": "Point", "coordinates": [25.22957322769481, -34.090558192184915]}}, {"type": "Feature", "properties": {"norad_id": 31043, "name": "FENGYUN 1C DEB", "group": "fengyun-1c-debris", "lat": -37.02663594229963, "lon": -178.80814702872325, "alt_km": 892.845694468444, "timestamp": "2025-12-16T03:53:27.336326+00:00", "meta": {"OBJECT_NAME": "FENGYUN 1C DEB", "OBJECT_ID": "1999-025BEM", "EPOCH": "2025-12-15T08:09:49.353120", "MEAN_MOTION": 14.08433244, "ECCENTRICITY": 0.00412587, "INCLINATION": 98.7642, "RA_OF_ASC_NODE": 7.0754, "ARG_OF_PERICENTER": 356.7849, "MEAN_ANOMALY": 15.6259, "EPHEMERIS_TYPE": 0, "CLASSIFICATION_TYPE": "U", "NORAD_CAT_ID": 31043, "ELEMENT_SET_NO": 999, "REV_AT_EPOCH": 96024, "BSTAR": 0.0005628094, "MEAN_MOTION_DOT": 9.29e-06, "MEAN_MOTION_DDOT": 0}, "tle": {"line1": "1 31043U 99025BEM 25349.34015455  .00000929  00000+0  56281-3 0  9990", "line2": "2 31043  98.7642   7.0754 0041258 356.7849  15.6259 14.08433244960246"}}, "geometry": {"type": "Point", "coordinates": [-178.80814702872325, -37.02663594229963]}}, {"type": "Feature", "properties": {"norad_id": 31046, "name": "FENGYUN 1C DEB", "group": "fengyun-1c-debris", "lat": -2.3289894723365134, "lon": 110.51706768610752, "alt_km": 686.2538878715886, "timestamp": "2025-12-16T03:53:27.336337+00:00", "meta": {"OBJECT_NAME": "FENGYUN 1C DEB", "OBJECT_ID": "1999-025BEQ", "EPOCH": "2025-12-15T06:50:32.502624", "MEAN_MOTION": 14.63916283, "ECCENTRICITY": 0.00459568, "INCLINATION": 98.9675, "RA_OF_ASC_NODE": 109.1953, "ARG_OF_PERICENTER": 95.1545, "MEAN_ANOMALY": 323.7854, "EPHEMERIS_TYPE": 0, "CLASSIFICATION_TYPE": "U", "NORAD_CAT_ID": 31046, "ELEMENT_SET_NO": 999, "REV_AT_EPOCH": 96680, "BSTAR": 0.0026169528, "MEAN_MOTION_DOT": 0.00013869, "MEAN_MOTION_DDOT": 0}, "tle": {"line1": "1 31046U 99025BEQ 25349.28509841  .00013869  00000+0  26170-2 0  9993", "line2": "2 31046  98.9675 109.1953 0045956  95.1545 323.7854 14.63916283966800"}}, "geometry": {"type": "Point", "coordinates": [110.51706768610752, -2.3289894723365134]}}, {"type": "Feature", "properties": {"norad_id": 31047, "name": "FENGYUN 1C DEB", "group": "fengyun-1c-debris", "lat": -73.55957425289154, "lon": 136.2431489367137, "alt_km": 852.7977603266108, "timestamp": "2025-12-16T03:53:27.336347+00:00", "meta": {"OBJECT_NAME": "FENGYUN 1C DEB", "OBJECT_ID": "1999-025BER", "EPOCH": "2025-12-12T05:34:00.054912", "MEAN_MOTION": 14.13841318, "ECCENTRICITY": 0.00255963, "INCLINATION": 98.7004, "RA_OF_ASC_NODE": 343.6788, "ARG_OF_PERICENTER": 179.2346, "MEAN_ANOMALY": 243.6594, "EPHEMERIS_TYPE": 0, "CLASSIFICATION_TYPE": "U", "NORAD_CAT_ID": 31047, "ELEMENT_SET_NO": 999, "REV_AT_EPOCH": 96352, "BSTAR": 0.00060318894, "MEAN_MOTION_DOT": 1.103e-05, "MEAN_MOTION_DDOT": 0}, "tle": {"line1": "1 31047U 99025BER 25346.23194508  .00001103  00000+0  60319-3 0  9998", "line2": "2 31047  98.7004 343.6788 0025596 179.2346 243.6594 14.13841318963525"}}, "geometry": {"type": "Point", "coordinates": [136.2431489367137, -73.55957425289154]}}, {"type": "Feature", "properties": {"norad_id": 31051, "name": "FENGYUN 1C DEB", "group": "fengyun-1c-debris", "lat": -44.35278625731232, "lon": -168.1183720581823, "alt_km": 895.8195117257346, "timestamp": "2025-12-16T03:53:27.336357+00:00", "meta": {"OBJECT_NAME": "FENGYUN 1C DEB", "OBJECT_ID": "1999-025BEV", "EPOCH": "2025-12-12T21:48:30.367584", "MEAN_MOTION": 14.03033745, "ECCENTRICITY": 0.00534524, "INCLINATION": 98.8183, "RA_OF_ASC_NODE": 17.4591, "ARG_OF_PERICENTER": 135.0078, "MEAN_ANOMALY": 225.5438, "EPHEMERIS_TYPE": 0, "CLASSIFICATION_TYPE": "U", "NORAD_CAT_ID": 31051, "ELEMENT_SET_NO": 999, "REV_AT_EPOCH": 63821, "BSTAR": 0.00016986752, "MEAN_MOTION_DOT": 2.25e-06, "MEAN_MOTION_DDOT": 0}, "tle": {"line1": "1 31051U 99025BEV 25346.90868481  .00000225  00000+0  16987-3 0  9991", "line2": "2 31051  98.8183  17.4591 0053452 135.0078 225.5438 14.03033745638218"}}, "geometry": {"type": "Point", "coordinates": [-168.1183720581823, -44.35278625731232]}}, {"type": "Feature", "properties": {"norad_id": 31053, "name": "FENGYUN 1C DEB", "group": "fengyun-1c-debris", "lat": 53.57004434516676, "lon": -55.48287056015234, "alt_km": 795.3861662835407, "timestamp": "2025-12-16T03:53:27.336370+00:00", "meta": {"OBJECT_NAME": "FENGYUN 1C DEB", "OBJECT_ID": "1999-025BEX", "EPOCH": "2025-12-14T07:40:45.863328", "MEAN_MOTION": 13.75879092, "ECCENTRICITY": 0.0309088, "INCLINATION": 98.7934, "RA_OF_ASC_NODE": 110.708, "ARG_OF_PERICENTER": 90.7576, "MEAN_ANOMALY": 272.8998, "EPHEMERIS_TYPE": 0, "CLASSIFICATION_TYPE": "U", "NORAD_CAT_ID": 31053, "ELEMENT_SET_NO": 999, "REV_AT_EPOCH": 93498, "BSTAR": 0.0016967079, "MEAN_MOTION_DOT": 2.295e-05, "MEAN_MOTION_DDOT": 0}, "tle": {"line1": "1 31053U 99025BEX 25348.31997527  .00002295  00000+0  16967-2 0  9990", "line2": "2 31053  98.7934 110.7080 0309088  90.7576 272.8998 13.75879092934982"}}, "geometry": {"type": "Point", "coordinates": [-55.48287056015234, 53.57004434516676]}}, {"type": "Feature", "properties": {"norad_id": 31054, "name": "FENGYUN 1C DEB", "group": "fengyun-1c-debris", "lat": -8.269033932346966, "lon": 4.36162655722299, "alt_km": 859.6035558042568, "timestamp": "2025-12-16T03:53:27.336382+00:00", "meta": {"OBJECT_NAME": "FENGYUN 1C DEB", "OBJECT_ID": "1999-025BEY", "EPOCH": "2025-12-12T23:33:01.289952", "MEAN_MOTION": 14.12169943, "ECCENTRICITY": 0.00106903, "INCLINATION": 98.6903, "RA_OF_ASC_NODE": 0.0048, "ARG_OF_PERICENTER": 119.7825, "MEAN_ANOMALY": 270.232, "EPHEMERIS_TYPE": 0, "CLASSIFICATION_TYPE": "U", "NORAD_CAT_ID": 31054, "ELEMENT_SET_NO": 999, "REV_AT_EPOCH": 96767, "BSTAR": 0.00024010055, "MEAN_MOTION_DOT": 3.99e-06, "MEAN_MOTION_DDOT": 0}, "tle": {"line1": "1 31054U 99025BEY 25346.98126493  .00000399  00000+0  24010-3 0  9990", "line2": "2 31054  98.6903   0.0048 0010690 119.7825 270.2320 14.12169943967672"}}, "geometry": {"type": "Point", "coordinates": [4.36162655722299, -8.269033932346966]}}, {"type": "Feature", "properties": {"norad_id": 31055, "name": "FENGYUN 1C DEB", "group": "fengyun-1c-debris", "lat": 80.85370963226892, "lon": -85.44503284770327, "alt_km": 867.7020471498345, "timestamp": "2025-12-16T03:53:27.336392+00:00", "meta": {"OBJECT_NAME": "FENGYUN 1C DEB", "OBJECT_ID": "1999-025BEZ", "EPOCH": "2025-12-13T20:05:10.917024", "MEAN_MOTION": 14.10378167, "ECCENTRICITY": 0.00240071, "INCLINATION": 98.7599, "RA_OF_ASC_NODE": 19.0187, "ARG_OF_PERICENTER": 268.7579, "MEAN_ANOMALY": 264.6453, "EPHEMERIS_TYPE": 0, "CLASSIFICATION_TYPE": "U", "NORAD_CAT_ID": 31055, "ELEMENT_SET_NO": 999, "REV_AT_EPOCH": 96137, "BSTAR": 0.0004813979, "MEAN_MOTION_DOT": 8.14e-06, "MEAN_MOTION_DDOT": 0}, "tle": {"line1": "1 31055U 99025BEZ 25347.83693191  .00000814  00000+0  48140-3 0  9992", "line2": "2 31055  98.7599  19.0187 0024007 268.7579 264.6453 14.10378167961370"}}, "geometry": {"type": "Point", "coordinates": [-85.44503284770327, 80.85370963226892]}}, {"type": "Feature", "properties": {"norad_id": 31056, "name": "FENGYUN 1C DEB", "group": "fengyun-1c-debris", "lat": 73.35456763034973, "lon": -176.7063659109577, "alt_km": 849.6216804314563, "timestamp": "2025-12-16T03:53:27.336403+00:00", "meta": {"OBJECT_NAME": "FENGYUN 1C DEB", "OBJECT_ID": "1999-025BFA", "EPOCH": "2025-12-12T10:08:21.253344", "MEAN_MOTION": 14.14305059, "ECCENTRICITY": 0.00254469, "INCLINATION": 98.6669, "RA_OF_ASC_NODE": 328.991, "ARG_OF_PERICENTER": 343.9431, "MEAN_ANOMALY": 170.2622, "EPHEMERIS_TYPE": 0, "CLASSIFICATION_TYPE": "U", "NORAD_CAT_ID": 31056, "ELEMENT_SET_NO": 999, "REV_AT_EPOCH": 96813, "BSTAR": 0.00057540958, "MEAN_MOTION_DOT": 1.06e-05, "MEAN_MOTION_DDOT": 0}, "tle": {"line1": "1 31056U 99025BFA 25346.42246821  .00001060  00000+0  57541-3 0  9990", "line2": "2 31056  98.6669 328.9910 0025446 343.9431 170.2622 14.14305059968130"}}, "geometry": {"type": "Point", "coordinates": [-176.7063659109577, 73.35456763034973]}}]}